IRIDIUM 116             
1 43072U 17083C   25290.90892520  .00000214  00000+0  69362-4 0  9994
2 43072  86.3950  63.2681 0001796  91.1344 269.0058 14.34218012409447
IRIDIUM 130             
1 43073U 17083D   25290.87721098  .00000175  00000+0  55398-4 0  9992
2 43073  86.3957  63.5333 0001957  83.4243 276.7175 14.34218753409383
IRIDIUM 151             
1 43074U 17083E   25290.92161028  .00000133  00000+0  40330-4 0  9994
2 43074  86.3952  63.3153 0001810  92.2668 267.8735 14.34217628409411
IRIDIUM 134             
1 43075U 17083F   25290.88989773 -.00000077  00000+0 -34583-4 0  9997
2 43075  86.3953  63.3336 0001962  84.5871 275.5549 14.34217437409376
IRIDIUM 137             
1 43076U 17083G   25290.90258193 -.00000015  00000+0 -12323-4 0  9996
2 43076  86.3953  63.4162 0001436 102.2917 257.8440 14.34217408409449
IRIDIUM 141             
1 43077U 17083H   25290.89624040  .00000214  00000+0  69287-4 0  9993
2 43077  86.3946  63.2626 0002213  95.1662 264.9786 14.34217391409449
IRIDIUM 153             
1 43078U 17083J   25290.56934593  .00000230  00000+0  75230-4 0  9998
2 43078  86.4007  31.8789 0002543  94.9098 265.2388 14.34217342410503
IRIDIUM 131             
1 43079U 17083K   25290.88355570  .00000272  00000+0  90000-4 0  9994
2 43079  86.3956  63.4379 0002115  95.5886 264.5551 14.34218190409378
